IRIDIUM 150             
1 43257U 18030J   25290.70253406  .00000230  00000+0  75144-4 0  9997
2 43257  86.4007  31.8201 0002004  90.9060 269.2365 14.34215065395408
IRIDIUM 143             
1 43258U 18030K   25290.68351204  .00000420  00000+0  14299-3 0  9994
2 43258  86.4010  31.9112 0001774  87.2648 272.8751 14.34217428395335
IRIDIUM 161             
1 43478U 18047C   25290.23373809  .00000570  00000+0  16347-3 0  9994
2 43478  86.4558 189.9630 0002308  84.6708 275.4756 14.43287002390094
IRIDIUM 152             
1 43479U 18047D   25290.72599971  .00000107  00000+0  31056-4 0  9990
2 43479  86.4031 189.6186 0002243  84.1711 275.9740 14.34217642387739
IRIDIUM 147             
1 43480U 18047E   25290.66257277  .00000030  00000+0  35155-5 0  9995
2 43480  86.4033 189.6458 0002129  86.4814 273.6625 14.34217518387725
IRIDIUM 110             
1 43481U 18047F   25290.45960735  .00000420  00000+0  14282-3 0  9992
2 43481  86.4041 189.8156 0002444  91.9697 268.1779 14.34217295387688
IRIDIUM 162             
1 43482U 18047G   25290.43542536  .00000469  00000+0  13344-3 0  9997
2 43482  86.4555 189.7732 0002605  81.7083 278.4413 14.43277206390112
IRIDIUM 160             
1 43569U 18061A   25290.61475153  .00000062  00000+0  15046-4 0  9990
2 43569  86.4003 158.1947 0002153  91.1703 268.9740 14.34217157378602
